[ {"name": "STARLINK-31088", "line1": "1 58604U 23200R   26103.02537304  .00000552  00000+0  29577-4 0  9991", "line2": "2 58604  43.0049 334.7903 0001297 266.2683  93.8021 15.27570565128867"}, {"name": "STARLINK-31038", "line1": "1 58605U 23200S   26102.37606483  .00021540  00000+0  77115-3 0  9994", "line2": "2 58605  43.0039 338.5314 0002981 266.2106  93.8405 15.28369745128768"}, {"name": "STARLINK-31082", "line1": "1 58606U 23200T   26101.66668981  .00026965  00000+0  10113-2 0  9997", "line2": "2 58606  43.0025 342.5239 0001556 258.6314 163.0529 15.26738452  6022"}, {"name": "STARLINK-31069", "line1": "1 58607U 23200U   26103.03693047 -.00000159  00000+0  37357-5 0  9992", "line2": "2 58607  43.0055 334.8876 0001187 266.7908  93.2808 15.27580883128861"}, {"name": "STARLINK-31067", "line1": "1 58608U 23200V   26103.04077995 -.00000598  00000+0 -12215-4 0  9995", "line2": "2 58608  43.0038 334.9194 0001286 276.9412  83.1294 15.27587103128869"}, {"name": "STARLINK-31085", "line1": "1 58609U 23200W   26103.04464444  .00000836  00000+0  39920-4 0  9990", "line2": "2 58609  43.0046 334.9409 0001669 257.9603 102.1061 15.27573918128867"}, {"name": "STARLINK-31089", "line1": "1 58610U 23200X   26102.92306066  .00002924  00000+0  11862-3 0  9997", "line2": "2 58610  43.0009 335.6949 0001582 262.2983  97.7689 15.26748543128849"}, {"name": "STARLINK-31061", "line1": "1 58611U 23200Y   26102.98182676  .00000179  00000+0  16046-4 0  9993", "line2": "2 58611  43.0036 335.3260 0001265 239.9627 120.1099 15.27570472128859"}, {"name": "STARLINK-31054", "line1": "1 58619U 23203B   26103.30479798  .00002027  00000+0  83222-4 0  9999", "line2": "2 58619  43.0010 231.7477 0001570 273.6407  86.4265 15.27558289128859"}, {"name": "STARLINK-31134", "line1": "1 58621U 23203D   26103.06508773 -.00000005  00000+0  93354-5 0  9994", "line2": "2 58621  43.0006 233.3872 0001402 275.8442  84.2250 15.27572173128815"}, {"name": "STARLINK-31133", "line1": "1 58622U 23203E   26102.84323154  .00000746  00000+0  36632-4 0  9994", "line2": "2 58622  43.0003 234.3051 0001020 265.9572  94.1163 15.27575908128781"}, {"name": "STARLINK-31068", "line1": "1 58623U 23203F   26102.70859292  .00000911  00000+0  42617-4 0  9991", "line2": "2 58623  43.0025 235.0142 0001578 241.0277 119.0417 15.27584881128767"}, {"name": "STARLINK-31129", "line1": "1 58624U 23203G   26102.83681062  .00024262  00000+0  88653-3 0  9998", "line2": "2 58624  43.0027 234.2591 0001483 268.2539  91.8143 15.27644829128780"}, {"name": "STARLINK-30774", "line1": "1 58625U 23203H   26102.63678858  .00001276  00000+0  55892-4 0  9996", "line2": "2 58625  43.0037 235.3364 0001521 270.9031  89.1646 15.27580793128756"}, {"name": "STARLINK-31086", "line1": "1 58626U 23203J   26103.06880300  .00000008  00000+0  98070-5 0  9990", "line2": "2 58626  43.0008 232.5584 0000135 304.6418  55.4421 15.27564725128824"}, {"name": "STARLINK-31065", "line1": "1 58627U 23203K   26103.08036117  .00001559  00000+0  66167-4 0  9995", "line2": "2 58627  43.0038 232.6564 0001387 274.8771  85.1923 15.27576921128825"}, {"name": "STARLINK-31092", "line1": "1 58628U 23203L   26102.69832187  .00001115  00000+0  50046-4 0  9990", "line2": "2 58628  43.0027 234.9354 0001259 254.1196 105.9517 15.27577829128767"}, {"name": "STARLINK-31091", "line1": "1 58629U 23203M   26102.65557737  .00001015  00000+0  46404-4 0  9994", "line2": "2 58629  42.9996 238.9122 0001080 259.3057 100.7673 15.27576906128719"}, {"name": "STARLINK-31084", "line1": "1 58630U 23203N   26103.30557271  .00000726  00000+0  35925-4 0  9996", "line2": "2 58630  43.0063 235.1941 0002986 280.8700  79.1816 15.27585472128813"}, {"name": "STARLINK-31064", "line1": "1 58631U 23203P   26103.05946186 -.00000605  00000+0 -12480-4 0  9995", "line2": "2 58631  43.0004 236.7812 0001164 269.2086  90.8632 15.27586030129940"}, {"name": "STARLINK-31081", "line1": "1 58632U 23203Q   26103.10043395  .00002062  00000+0  84442-4 0  9996", "line2": "2 58632  43.0034 236.2329 0000894 243.4779 116.5981 15.27568305130012"}, {"name": "STARLINK-31022", "line1": "1 58633U 23203R   26103.06716704  .00000073  00000+0  12175-4 0  9997", "line2": "2 58633  43.0004 236.8407 0001242 269.4740  90.5969 15.27577800130003"}, {"name": "STARLINK-31025", "line1": "1 58634U 23203S   26103.07392394  .00000719  00000+0  35633-4 0  9995", "line2": "2 58634  43.0037 232.5221 0000918 270.2463  89.8283 15.27577731130056"}, {"name": "STARLINK-31018", "line1": "1 58635U 23203T   26103.05480516 -.00001054  00000+0 -28780-4 0  9998", "line2": "2 58635  43.0012 233.3146 0001332 271.0606  89.0093 15.27583586130049"}, {"name": "STARLINK-31008", "line1": "1 58636U 23203U   26102.73044023  .00000364  00000+0  22757-4 0  9991", "line2": "2 58636  43.0002 235.1816 0001178 273.0013  87.0704 15.27585687129998"}, {"name": "STARLINK-31077", "line1": "1 58637U 23203V   26103.05095241 -.00000375  00000+0 -41058-5 0  9996", "line2": "2 58637  43.0004 233.2856 0001233 272.4271  87.6439 15.27579119130047"}, {"name": "STARLINK-31078", "line1": "1 58638U 23203W   26103.04709614 -.00000472  00000+0 -76421-5 0  9992", "line2": "2 58638  43.0016 233.2546 0001314 275.0463  85.0238 15.27583279128812"}, {"name": "STARLINK-31070", "line1": "1 58639U 23203X   26102.73430589 -.00000936  00000+0 -24477-4 0  9998", "line2": "2 58639  43.0015 235.2086 0001261 281.6064  78.4646 15.27577525128764"}, {"name": "STARLINK-31090", "line1": "1 58640U 23203Y   26102.71198888 -.00000122  00000+0  51061-5 0  9997", "line2": "2 58640  43.0020 227.2582 0001325 279.0672  81.0029 15.27586780128860"}, {"name": "STARLINK-31113", "line1": "1 58668U 23211B   26103.11910939  .00000907  00000+0  42492-4 0  9997", "line2": "2 58668  43.0037 250.5410 0001176 276.1651  83.9067 15.27576357127733"}, {"name": "STARLINK-31128", "line1": "1 58669U 23211C   26103.13581348  .00000283  00000+0  19830-4 0  9995", "line2": "2 58669  43.0044 250.6632 0001574 264.4114  95.6559 15.27576424127736"}, {"name": "STARLINK-31083", "line1": "1 58670U 23211D   26103.11525287  .00000681  00000+0  34258-4 0  9998", "line2": "2 58670  43.0020 250.5122 0001355 273.4835  86.5861 15.27577418127731"}, {"name": "STARLINK-30828", "line1": "1 58671U 23211E   26102.75377284  .00002116  00000+0  86398-4 0  9997", "line2": "2 58671  43.0051 252.9592 0001574 285.8548  74.2130 15.27576023127671"}, {"name": "STARLINK-31104", "line1": "1 58672U 23211F   26102.75759753  .00084929  00000+0  20526-2 0  9994", "line2": "2 58672  42.9942 249.5088 0015116 333.7395  26.2693 15.40072230128994"}, {"name": "STARLINK-31131", "line1": "1 58673U 23211G   26102.66283468  .00001372  00000+0  59370-4 0  9992", "line2": "2 58673  43.0019 242.6171 0001508 265.5421  94.5258 15.27578658129065"}, {"name": "STARLINK-31124", "line1": "1 58674U 23211H   26102.86142042 -.00000068  00000+0  70646-5 0  9999", "line2": "2 58674  43.0030 252.0480 0001225 270.1438  89.9274 15.27578831127699"}, {"name": "STARLINK-31126", "line1": "1 58675U 23211J   26103.10754330  .00000193  00000+0  16539-4 0  9995", "line2": "2 58675  43.0012 250.4449 0001237 276.3826  83.6884 15.27575913127730"}, {"name": "STARLINK-31066", "line1": "1 58676U 23211K   26103.23186292  .00001047  00000+0  47563-4 0  9996", "line2": "2 58676  43.0023  35.9767 0001428 268.9015  91.1673 15.27574821127312"}, {"name": "STARLINK-31058", "line1": "1 58677U 23211L   26103.12554761 -.00000171  00000+0  32864-5 0  9992", "line2": "2 58677  43.0002 250.5864 0000055 116.0943 243.9915 15.27561052127735"}, {"name": "STARLINK-31125", "line1": "1 58678U 23211M   26102.69095607  .00000259  00000+0  18943-4 0  9990", "line2": "2 58678  43.0027 253.3436 0001403 269.6866  90.3825 15.27579673128830"}, {"name": "STARLINK-31110", "line1": "1 58679U 23211N   26103.12939411  .00001851  00000+0  76799-4 0  9992", "line2": "2 58679  43.0057 250.6204 0002021 270.9728  89.0892 15.27566526127736"}, {"name": "STARLINK-31112", "line1": "1 58680U 23211P   26103.13709975  .00001747  00000+0  73004-4 0  9995", "line2": "2 58680  43.0025 250.6797 0001525 290.7647  69.3041 15.27579115128914"}, {"name": "STARLINK-31147", "line1": "1 58681U 23211Q   26102.89097119  .00001705  00000+0  71458-4 0  9993", "line2": "2 58681  43.0002 252.2674 0001291 257.9951 102.0756 15.27581028127693"}, {"name": "STARLINK-31144", "line1": "1 58682U 23211R   26103.11012005 -.00002759  00000+0 -90845-4 0  9994", "line2": "2 58682  43.0018 250.4651 0001085 264.4148  95.6580 15.27561873127731"}, {"name": "STARLINK-31095", "line1": "1 58683U 23211S   26103.09998199  .00000343  00000+0  21991-4 0  9990", "line2": "2 58683  43.0000 251.2506 0001339 274.6901  85.3797 15.27579861128994"}, {"name": "STARLINK-31107", "line1": "1 58684U 23211T   26103.10640325 -.00000204  00000+0  21598-5 0  9999", "line2": "2 58684  43.0063 251.3001 0003535 259.5146 100.5308 15.27567980127725"}, {"name": "STARLINK-31121", "line1": "1 58685U 23211U   26103.11397211  .00001329  00000+0  57828-4 0  9996", "line2": "2 58685  43.0008 250.4948 0000854 271.2023  88.8731 15.27574431127739"}, {"name": "STARLINK-31137", "line1": "1 58686U 23211V   26102.69224248  .00000301  00000+0  20480-4 0  9991", "line2": "2 58686  42.9997 253.3505 0001341 257.8831 102.1871 15.27576119127667"}, {"name": "STARLINK-31106", "line1": "1 58689U 23211Y   26102.81530805  .00009526  00000+0  35505-3 0  9998", "line2": "2 58689  43.0047 252.5588 0001511 266.0427  94.0252 15.27599182127681"}, {"name": "STARLINK-11072 [DTC]", "line1": "1 58705U 24002A   26103.23823892  .00002622  00000+0  26482-4 0  9999", "line2": "2 58705  53.1564 103.7040 0000865  88.9288 271.1829 15.69715030131864"}, {"name": "STARLINK-11075 [DTC]", "line1": "1 58706U 24002B   26103.24315135  .00000561  00000+0  94890-5 0  9996", "line2": "2 58706  53.1608 103.7425 0001122  84.4977 275.6169 15.69706696131868"}]